FLOCK 4G-18             
1 62680U 25009BZ  26068.19114186  .00011766  00000+0  44319-3 0  9995
2 62680  97.4054 150.5008 0004100 335.7331  24.3715 15.27241676121267
STARLINK-36553          
1 67506U 26012P   26068.08572399  .00035703  00000+0  13011-2 0  9995
2 67506  43.0032 317.4469 0001857 254.6779 105.3867 15.27569407  7679
